{"type": "FeatureCollection", "features": [ {"type": "Feature", "properties": {"norad_id": 33825, "name": "COSMOS 2251 DEB", "group": "cosmos-2251-debris", "lat": -35.293240130248506, "lon": -157.00695684925955, "alt_km": 696.5538037373108, "timestamp": "2025-12-21T05:44:51.980049+00:00", "meta": {"OBJECT_NAME": "COSMOS 2251 DEB", "OBJECT_ID": "1993-036BS", "EPOCH": "2025-12-20T19:47:48.418080", "MEAN_MOTION": 14.69828604, "ECCENTRICITY": 0.00849619, "INCLINATION": 73.9844, "RA_OF_ASC_NODE": 12.0678, "ARG_OF_PERICENTER": 337.2006, "MEAN_ANOMALY": 207.4684, "EPHEMERIS_TYPE": 0, "CLASSIFICATION_TYPE": "U", "NORAD_CAT_ID": 33825, "ELEMENT_SET_NO": 999, "REV_AT_EPOCH": 88998, "BSTAR": 0.00053561641, "MEAN_MOTION_DOT": 3.348e-05, "MEAN_MOTION_DDOT": 0}, "tle": {"line1": "1 33825U 93036BS  25354.82486595  .00003348  00000+0  53562-3 0  9999", "line2": "2 33825  73.9844  12.0678 0084961 337.2006 207.4684 14.69828604889982"}}, "geometry": {"type": "Point", "coordinates": [-157.00695684925955, -35.293240130248506]}}, {"type": "Feature", "properties": {"norad_id": 33826, "name": "COSMOS 2251 DEB", "group": "cosmos-2251-debris", "lat": -73.2907846852886, "lon": -38.2395091306172, "alt_km": 782.0216107038877, "timestamp": "2025-12-21T05:44:51.980059+00:00", "meta": {"OBJECT_NAME": "COSMOS 2251 DEB", "OBJECT_ID": "1993-036BT", "EPOCH": "2025-12-20T14:09:39.581280", "MEAN_MOTION": 14.5175577, "ECCENTRICITY": 0.0082564, "INCLINATION": 74.0644, "RA_OF_ASC_NODE": 35.117, "ARG_OF_PERICENTER": 76.8214, "MEAN_ANOMALY": 45.7262, "EPHEMERIS_TYPE": 0, "CLASSIFICATION_TYPE": "U", "NORAD_CAT_ID": 33826, "ELEMENT_SET_NO": 999, "REV_AT_EPOCH": 87883, "BSTAR": 0.00036978, "MEAN_MOTION_DOT": 1.525e-05, "MEAN_MOTION_DDOT": 0}, "tle": {"line1": "1 33826U 93036BT  25354.59004145  .00001525  00000+0  36978-3 0  9998", "line2": "2 33826  74.0644  35.1170 0082564  76.8214  45.7262 14.51755770878831"}}, "geometry": {"type": "Point", "coordinates": [-38.2395091306172, -73.2907846852886]}}, {"type": "Feature", "properties": {"norad_id": 33828, "name": "COSMOS 2251 DEB", "group": "cosmos-2251-debris", "lat": -51.1414125010457, "lon": -158.512409734959, "alt_km": 730.1640651314501, "timestamp": "2025-12-21T05:44:51.980070+00:00", "meta": {"OBJECT_NAME": "COSMOS 2251 DEB", "OBJECT_ID": "1993-036BV", "EPOCH": "2025-12-20T16:57:34.396704", "MEAN_MOTION": 14.4435401, "ECCENTRICITY": 0.00295163, "INCLINATION": 74.0454, "RA_OF_ASC_NODE": 223.2753, "ARG_OF_PERICENTER": 294.981, "MEAN_ANOMALY": 121.4478, "EPHEMERIS_TYPE": 0, "CLASSIFICATION_TYPE": "U", "NORAD_CAT_ID": 33828, "ELEMENT_SET_NO": 999, "REV_AT_EPOCH": 88428, "BSTAR": 0.00027245325, "MEAN_MOTION_DOT": 9.16e-06, "MEAN_MOTION_DDOT": 0}, "tle": {"line1": "1 33828U 93036BV  25354.70664811  .00000916  00000+0  27245-3 0  9995", "line2": "2 33828  74.0454 223.2753 0029516 294.9810 121.4478 14.44354010884283"}}, "geometry": {"type": "Point", "coordinates": [-158.512409734959, -51.1414125010457]}}, {"type": "Feature", "properties": {"norad_id": 33830, "name": "COSMOS 2251 DEB", "group": "cosmos-2251-debris", "lat": 72.2231059149531, "lon": -29.566276168559966, "alt_km": 649.0043287908456, "timestamp": "2025-12-21T05:44:51.980081+00:00", "meta": {"OBJECT_NAME": "COSMOS 2251 DEB", "OBJECT_ID": "1993-036BX", "EPOCH": "2025-12-20T23:05:38.253984", "MEAN_MOTION": 14.76979031, "ECCENTRICITY": 0.00426121, "INCLINATION": 74.0311, "RA_OF_ASC_NODE": 214.2443, "ARG_OF_PERICENTER": 332.6253, "MEAN_ANOMALY": 91.3407, "EPHEMERIS_TYPE": 0, "CLASSIFICATION_TYPE": "U", "NORAD_CAT_ID": 33830, "ELEMENT_SET_NO": 999, "REV_AT_EPOCH": 89593, "BSTAR": 0.00046317285, "MEAN_MOTION_DOT": 3.278e-05, "MEAN_MOTION_DDOT": 0}, "tle": {"line1": "1 33830U 93036BX  25354.96224831  .00003278  00000+0  46317-3 0  9995", "line2": "2 33830  74.0311 214.2443 0042612 332.6253  91.3407 14.76979031895939"}}, "geometry": {"type": "Point", "coordinates": [-29.566276168559966, 72.2231059149531]}}, {"type": "Feature", "properties": {"norad_id": 33832, "name": "COSMOS 2251 DEB", "group": "cosmos-2251-debris", "lat": 10.499498117475031, "lon": -163.205860144369, "alt_km": 706.5836797137454, "timestamp": "2025-12-21T05:44:51.980091+00:00", "meta": {"OBJECT_NAME": "COSMOS 2251 DEB", "OBJECT_ID": "1993-036BZ", "EPOCH": "2025-12-20T13:23:52.437984", "MEAN_MOTION": 14.60728869, "ECCENTRICITY": 0.0024418, "INCLINATION": 74.0526, "RA_OF_ASC_NODE": 195.056, "ARG_OF_PERICENTER": 224.6655, "MEAN_ANOMALY": 165.2826, "EPHEMERIS_TYPE": 0, "CLASSIFICATION_TYPE": "U", "NORAD_CAT_ID": 33832, "ELEMENT_SET_NO": 999, "REV_AT_EPOCH": 88539, "BSTAR": 0.00077782, "MEAN_MOTION_DOT": 3.78e-05, "MEAN_MOTION_DDOT": 0}, "tle": {"line1": "1 33832U 93036BZ  25354.55824581  .00003780  00000+0  77782-3 0  9998", "line2": "2 33832  74.0526 195.0560 0024418 224.6655 165.2826 14.60728869885394"}}, "geometry": {"type": "Point", "coordinates": [-163.205860144369, 10.499498117475031]}}, {"type": "Feature", "properties": {"norad_id": 33835, "name": "COSMOS 2251 DEB", "group": "cosmos-2251-debris", "lat": -68.59142953130741, "lon": -48.33981556795043, "alt_km": 711.250961346118, "timestamp": "2025-12-21T05:44:51.980101+00:00", "meta": {"OBJECT_NAME": "COSMOS 2251 DEB", "OBJECT_ID": "1993-036CC", "EPOCH": "2025-12-20T15:59:49.311744", "MEAN_MOTION": 14.62320106, "ECCENTRICITY": 0.00540227, "INCLINATION": 74.0578, "RA_OF_ASC_NODE": 85.9476, "ARG_OF_PERICENTER": 137.2138, "MEAN_ANOMALY": 342.7905, "EPHEMERIS_TYPE": 0, "CLASSIFICATION_TYPE": "U", "NORAD_CAT_ID": 33835, "ELEMENT_SET_NO": 999, "REV_AT_EPOCH": 88905, "BSTAR": 0.0005664675, "MEAN_MOTION_DOT": 2.891e-05, "MEAN_MOTION_DDOT": 0}, "tle": {"line1": "1 33835U 93036CC  25354.66654296  .00002891  00000+0  56647-3 0  9996", "line2": "2 33835  74.0578  85.9476 0054022 137.2138 342.7905 14.62320106889057"}}, "geometry": {"type": "Point", "coordinates": [-48.33981556795043, -68.59142953130741]}}, {"type": "Feature", "properties": {"norad_id": 33836, "name": "COSMOS 2251 DEB", "group": "cosmos-2251-debris", "lat": 73.96998141566691, "lon": -25.1452619146113, "alt_km": 606.7711623005762, "timestamp": "2025-12-21T05:44:51.980111+00:00", "meta": {"OBJECT_NAME": "COSMOS 2251 DEB", "OBJECT_ID": "1993-036CD", "EPOCH": "2025-12-20T22:54:53.227872", "MEAN_MOTION": 14.79747118, "ECCENTRICITY": 0.00227134, "INCLINATION": 73.9968, "RA_OF_ASC_NODE": 242.7391, "ARG_OF_PERICENTER": 92.7723, "MEAN_ANOMALY": 281.9394, "EPHEMERIS_TYPE": 0, "CLASSIFICATION_TYPE": "U", "NORAD_CAT_ID": 33836, "ELEMENT_SET_NO": 999, "REV_AT_EPOCH": 64210, "BSTAR": 0.00068905583, "MEAN_MOTION_DOT": 5.174e-05, "MEAN_MOTION_DDOT": 0}, "tle": {"line1": "1 33836U 93036CD  25354.95478273  .00005174  00000+0  68906-3 0  9996", "line2": "2 33836  73.9968 242.7391 0022713  92.7723 281.9394 14.79747118642108"}}, "geometry": {"type": "Point", "coordinates": [-25.1452619146113, 73.96998141566691]}}, {"type": "Feature", "properties": {"norad_id": 33837, "name": "COSMOS 2251 DEB", "group": "cosmos-2251-debris", "lat": -72.82678574322397, "lon": -72.32428138152024, "alt_km": 704.8107438418301, "timestamp": "2025-12-21T05:44:51.980121+00:00", "meta": {"OBJECT_NAME": "COSMOS 2251 DEB", "OBJECT_ID": "1993-036CE", "EPOCH": "2025-12-20T13:38:21.094080", "MEAN_MOTION": 14.50716351, "ECCENTRICITY": 0.0035906, "INCLINATION": 74.0125, "RA_OF_ASC_NODE": 40.8592, "ARG_OF_PERICENTER": 261.3278, "MEAN_ANOMALY": 98.3814, "EPHEMERIS_TYPE": 0, "CLASSIFICATION_TYPE": "U", "NORAD_CAT_ID": 33837, "ELEMENT_SET_NO": 999, "REV_AT_EPOCH": 88909, "BSTAR": 0.00017042, "MEAN_MOTION_DOT": 6.47e-06, "MEAN_MOTION_DDOT": 0}, "tle": {"line1": "1 33837U 93036CE  25354.56829970  .00000647  00000+0  17042-3 0  9993", "line2": "2 33837  74.0125  40.8592 0035906 261.3278  98.3814 14.50716351889095"}}, "geometry": {"type": "Point", "coordinates": [-72.32428138152024, -72.82678574322397]}}, {"type": "Feature", "properties": {"norad_id": 33838, "name": "COSMOS 2251 DEB", "group": "cosmos-2251-debris", "lat": 60.39624982563765, "lon": 164.148808747181, "alt_km": 743.9800385220706, "timestamp": "2025-12-21T05:44:51.980131+00:00", "meta": {"OBJECT_NAME": "COSMOS 2251 DEB", "OBJECT_ID": "1993-036CF", "EPOCH": "2025-12-20T09:42:46.395360", "MEAN_MOTION": 14.48384547, "ECCENTRICITY": 0.00275049, "INCLINATION": 74.036, "RA_OF_ASC_NODE": 135.4587, "ARG_OF_PERICENTER": 256.2914, "MEAN_ANOMALY": 137.4758, "EPHEMERIS_TYPE": 0, "CLASSIFICATION_TYPE": "U", "NORAD_CAT_ID": 33838, "ELEMENT_SET_NO": 999, "REV_AT_EPOCH": 88680, "BSTAR": 0.00029293956, "MEAN_MOTION_DOT": 1.074e-05, "MEAN_MOTION_DDOT": 0}, "tle": {"line1": "1 33838U 93036CF  25354.40470365  .00001074  00000+0  29294-3 0  9994", "line2": "2 33838  74.0360 135.4587 0027504 256.2914 137.4758 14.48384547886800"}}, "geometry": {"type": "Point", "coordinates": [164.148808747181, 60.39624982563765]}}, {"type": "Feature", "properties": {"norad_id": 33839, "name": "COSMOS 2251 DEB", "group": "cosmos-2251-debris", "lat": 54.586793298281385, "lon": -13.590820010202503, "alt_km": 733.5443830827471, "timestamp": "2025-12-21T05:44:51.980141+00:00", "meta": {"OBJECT_NAME": "COSMOS 2251 DEB", "OBJECT_ID": "1993-036CG", "EPOCH": "2025-12-20T19:25:08.724000", "MEAN_MOTION": 14.64438026, "ECCENTRICITY": 0.0085312, "INCLINATION": 74.0376, "RA_OF_ASC_NODE": 190.9743, "ARG_OF_PERICENTER": 301.1962, "MEAN_ANOMALY": 72.8913, "EPHEMERIS_TYPE": 0, "CLASSIFICATION_TYPE": "U", "NORAD_CAT_ID": 33839, "ELEMENT_SET_NO": 999, "REV_AT_EPOCH": 89698, "BSTAR": 0.00013471317, "MEAN_MOTION_DOT": 7.17e-06, "MEAN_MOTION_DDOT": 0}, "tle": {"line1": "1 33839U 93036CG  25354.80912875  .00000717  00000+0  13471-3 0  9999", "line2": "2 33839  74.0376 190.9743 0085312 301.1962  72.8913 14.64438026896987"}}, "geometry": {"type": "Point", "coordinates": [-13.590820010202503, 54.586793298281385]}}]}